STARLINK-3204           
1 49759U 21115AM  26068.48468745 -.00000159  00000+0  81139-5 0  9994
2 49759  53.2168 140.0392 0001337 100.2590 259.8553 15.08833857235646
CHUANGXIN 16A (CX-16A)  
1 53586U 22102A   26068.83297444  .00003128  00000+0  20134-3 0  9993
2 53586  28.9941 256.1289 0005063  43.7318 316.3682 15.05552649194538
